METEOSAT-11 (MSG-4)     
1 40732U 15034A   26060.36850338  .00000045  00000+0  00000+0 0  9996
2 40732   2.9298  71.7010 0001794 270.4204 319.1619  1.00265141  6134
GSAT0205 (GALILEO 9)    
1 40889U 15045A   26043.95434207  .00000078  00000+0  00000+0 0  9996
2 40889  53.6403 225.6057 0359599  59.9658 303.5577  1.67410800 64211
GSAT0206 (GALILEO 10)   
1 40890U 15045B   26059.93922248  .00000021  00000+0  00000+0 0  9998
2 40890  54.9818 224.5901 0003875  49.7770 310.2097  1.70473640 65193
NAVSTAR 75 (USA 265)    
1 41019U 15062A   26060.08613942 -.00000061  00000+0  00000+0 0  9992
2 41019  56.8906  34.9758 0111464 231.4723 127.5197  2.00567016 75669
ELEKTRO-L 2             
1 41105U 15074A   26060.37295924 -.00000133  00000+0  00000+0 0  9999
2 41105   6.4225  71.8480 0003479 234.1402 332.9412  1.00270670 37422
GSAT0209 (GALILEO 12)   
1 41174U 15079A   26057.76103078  .00000003  00000+0  00000+0 0  9992
2 41174  55.7556 104.2904 0004770 323.2858  36.7546  1.70474460 62890
GSAT0208 (GALILEO 11)   
1 41175U 15079B   26056.80807684  .00000001  00000+0  00000+0 0  9999
2 41175  55.7531 104.3136 0003630 328.1967  31.8517  1.70474379 63299
NAVSTAR 76 (USA 266)    
1 41328U 16007A   26060.17136941  .00000020  00000+0  00000+0 0  9998
2 41328  55.4534  93.7411 0095351 245.9160 113.1547  2.00556836 73671
GSAT0211 (GALILEO 14)   
1 41549U 16030A   26059.86498967  .00000022  00000+0  00000+0 0  9994
2 41549  55.1331 224.6708 0003612  25.8788 334.0929  1.70473700 60827
GSAT0210 (GALILEO 13)   
1 41550U 16030B   26058.36253702  .00000038  00000+0  00000+0 0  9993
2 41550  55.1319 224.7103 0001081 189.8434 170.1193  1.70473795 60794
INSAT-3DR               
1 41752U 16054A   26060.39055264 -.00000095  00000+0  00000+0 0  9996
2 41752   0.0387  98.2193 0013478 183.1379  92.3948  1.00272042 34736
GSAT0207 (GALILEO 15)   
1 41859U 16069A   26059.22748061  .00000008  00000+0  00000+0 0  9997
2 41859  55.4267 104.1007 0005031 309.1503  50.8842  1.70474383 57546
GSAT0212 (GALILEO 16)   
1 41860U 16069B   26058.49445287  .00000005  00000+0  00000+0 0  9998
2 41860  55.4238 104.1162 0003541 336.3420  23.7177  1.70474549 57782
GSAT0213 (GALILEO 17)   
1 41861U 16069C   26058.27531726  .00000004  00000+0  00000+0 0  9998
2 41861  55.4260 104.1303 0005130 291.6331  68.3872  1.70474834 57644
GSAT0214 (GALILEO 18)   
1 41862U 16069D   26059.00795760  .00000007  00000+0  00000+0 0  9994
2 41862  55.4250 104.1026 0004132 296.1582  63.8775  1.70474701 57785
GOES 16                 
1 41866U 16071A   26060.39905009 -.00000109  00000+0  00000+0 0  9998
2 41866   0.1396  90.4038 0002603 214.4077 253.3320  1.00270100 34024
GSAT-17                 
1 42815U 17040B   26060.51213068 -.00000276  00000+0  00000+0 0  9996
2 42815   0.0435 290.9974 0005311 354.8478 151.3324  1.00270714 31705
GSAT0215 (GALILEO 19)   
1 43055U 17079A   26058.91140776  .00000032  00000+0  00000+0 0  9990
2 43055  55.1102 224.5103 0000662  18.6698 341.2932  1.70474334 51128
GSAT0216 (GALILEO 20)   
1 43056U 17079B   26059.20262884  .00000028  00000+0  00000+0 0  9994
2 43056  55.1093 224.5024 0001682 323.3760  36.5709  1.70474475 51143
GSAT0217 (GALILEO 21)   
1 43057U 17079C   26058.83680325  .00000033  00000+0  00000+0 0  9993
2 43057  55.1101 224.5102 0002078 358.4163   1.5441  1.70474377 51121
GSAT0218 (GALILEO 22)   
1 43058U 17079D   26060.22999436  .00000018  00000+0  00000+0 0  9999
2 43058  55.1053 224.4697 0001889 305.5636  54.3694  1.70474409 51170
GOES 17                 
1 43226U 18022A   26060.43284451 -.00000200  00000+0  00000+0 0  9996
2 43226   0.6603  87.6177 0002408 216.9710 280.9615  1.00270589 29341
GSAT0221 (GALILEO 25)   
1 43564U 18060A   26059.54670036 -.00000105  00000+0  00000+0 0  9995
2 43564  57.2051 344.7173 0005804 306.7848  53.1689  1.70475369 47315
GSAT0222 (GALILEO 26)   
1 43565U 18060B   26055.66007047 -.00000092  00000+0  00000+0 0  9996
2 43565  57.2093 344.8256 0004435 285.4820  74.4799  1.70474973 47292
GSAT0219 (GALILEO 23)   
1 43566U 18060C   26053.53475141 -.00000082  00000+0  00000+0 0  9994
2 43566  57.2094 344.8846 0005774 308.6957  51.2673  1.70475208 47235
GSAT0220 (GALILEO 24)   
1 43567U 18060D   26058.44840234 -.00000102  00000+0  00000+0 0  9992
2 43567  57.2075 344.7516 0005301 308.5821  51.3768  1.70475159 47302
BEIDOU-3 M13            
1 43622U 18072A   26060.07090161 -.00000001  00000+0  00000+0 0  9993
2 43622  56.5296  66.2261 0008837 307.1015  52.8563  1.86230830 50643
BEIDOU-3 M14            
1 43623U 18072B   26059.39940667  .00000002  00000+0  00000+0 0  9992
2 43623  56.5307  66.2423 0006323 328.2609  31.7411  1.86230836 50620
NAVSTAR 77 (USA 289)    
1 43873U 18109A   26060.25145834  .00000021  00000+0  00000+0 0  9991
2 43873  55.6128  96.4437 0037866 198.2214 112.1971  2.00556460 52900
METEOR-M2 2             
1 44387U 19038A   26060.55606806  .00000241  00000+0  12399-3 0  9990
2 44387  98.9070  46.2959 0001329  18.1438 341.9787 14.24330665345977
NAVSTAR 78 (USA 293)    
1 44506U 19056A   26060.19755562 -.00000096  00000+0  00000+0 0  9998
2 44506  55.6862 335.4369 0058016 198.2399 333.4311  2.00568051 47902
